CCSDS_OEM_VERS = 1.0
CREATION_DATE  = 2017-05-11T11:19:48
ORIGINATOR     = GMAT USER

META_START
OBJECT_NAME          = MOPSSat_alt_35785_km_RAAN_90_125
OBJECT_ID            = SatId
CENTER_NAME          = Earth
REF_FRAME            = EME2000
TIME_SYSTEM          = UTC
START_TIME           = 2017-01-01T00:00:00.000
USEABLE_START_TIME   = 2017-01-01T00:00:00.000
USEABLE_STOP_TIME    = 2017-01-02T00:00:00.000
STOP_TIME            = 2017-01-02T00:00:00.000
INTERPOLATION        = Lagrange
INTERPOLATION_DEGREE = 7 
META_STOP


                                                                                   

2017-01-01T03:12:30.000  -3.604528527850518e+04   6.056361037095651e+03   6.307680369392971e+01  -1.500860770355255e+00  -3.178734774107897e+00   2.644481751607108e-03
2017-01-01T03:12:40.000  -3.606027917513063e+04   6.024571222833012e+03   6.310322288080793e+01  -1.497918762974821e+00  -3.179227642524023e+00   2.639355983446719e-03
2017-01-01T03:12:50.000  -3.607524365694458e+04   5.992776495063660e+03   6.312959081905151e+01  -1.494977835363776e+00  -3.179717533079706e+00   2.634232072798943e-03
2017-01-01T03:13:00.000  -3.609017873487368e+04   5.960976883296688e+03   6.315590752746266e+01  -1.492037989760433e+00  -3.180204449777230e+00   2.629110023571135e-03
2017-01-01T03:13:10.000  -3.610508441990978e+04   5.929172416911856e+03   6.318217302495804e+01  -1.489099228385634e+00  -3.180688396618293e+00   2.623989839640204e-03
2017-01-01T03:13:20.000  -3.611996072291277e+04   5.897363125570889e+03   6.320838733022149e+01  -1.486161553480981e+00  -3.181169377597291e+00   2.618871524919212e-03
2017-01-01T03:13:30.000  -3.613480765475791e+04   5.865549038912339e+03   6.323455046196359e+01  -1.483224967280440e+00  -3.181647396706402e+00   2.613755083307918e-03
2017-01-01T03:13:40.000  -3.614962522633423e+04   5.833730186551373e+03   6.326066243891870e+01  -1.480289472010432e+00  -3.182122457935384e+00   2.608640518692911e-03
2017-01-01T03:13:50.000  -3.616441344840571e+04   5.801906598386355e+03   6.328672327960050e+01  -1.477355069917921e+00  -3.182594565267400e+00   2.603527834996577e-03
2017-01-01T03:14:00.000  -3.617917233179951e+04   5.770078304186176e+03   6.331273300263366e+01  -1.474421763232565e+00  -3.183063722684784e+00   2.598417036111135e-03
2017-01-01T03:14:10.000  -3.619390188733122e+04   5.738245333752775e+03   6.333869162662197e+01  -1.471489554181673e+00  -3.183529934166691e+00   2.593308125924696e-03
2017-01-01T03:14:20.000  -3.620860212613723e+04   5.706407716202826e+03   6.336459917073448e+01  -1.468558444924049e+00  -3.183993203699629e+00   2.588201108206006e-03
2017-01-01T03:14:30.000  -3.622327305934202e+04   5.674565480686049e+03   6.339045565411847e+01  -1.465628437616197e+00  -3.184453535266876e+00   2.583095986719797e-03
2017-01-01T03:14:40.000  -3.623791469813362e+04   5.642718656222919e+03   6.341626109603320e+01  -1.462699534397362e+00  -3.184910932850906e+00   2.577992765200715e-03
2017-01-01T03:14:50.000  -3.625252705356992e+04   5.610867272116509e+03   6.344201551550826e+01  -1.459771737427633e+00  -3.185365400427051e+00   2.572891447419716e-03
2017-01-01T03:15:00.000  -3.626711013672368e+04   5.579011357646936e+03   6.346771893159875e+01  -1.456845048859641e+00  -3.185816941968298e+00   2.567792037134758e-03
2017-01-01T03:15:10.000  -3.628166395868055e+04   5.547150942071145e+03   6.349337136338248e+01  -1.453919470838648e+00  -3.186265561445117e+00   2.562694538090943e-03
2017-01-01T03:15:20.000  -3.629618853040311e+04   5.515286054929866e+03   6.351897282971978e+01  -1.450995005530545e+00  -3.186711262821512e+00   2.557598954069306e-03
2017-01-01T03:15:30.000  -3.631068386291553e+04   5.483416725634441e+03   6.354452334957924e+01  -1.448071655084124e+00  -3.187154050060463e+00   2.552505288821080e-03
2017-01-01T03:15:40.000  -3.632514996722884e+04   5.451542983632648e+03   6.357002294190581e+01  -1.445149421646268e+00  -3.187593927121668e+00   2.547413546094164e-03
2017-01-01T03:15:50.000  -3.633958685467273e+04   5.419664857677398e+03   6.359547162620589e+01  -1.442228307294925e+00  -3.188030897971638e+00   2.542323729516338e-03
2017-01-01T03:16:00.000  -3.635399453656250e+04   5.387782376559879e+03   6.362086942196018e+01  -1.439308314106353e+00  -3.188464966573523e+00   2.537235842712425e-03
2017-01-01T03:16:10.000  -3.636837302428517e+04   5.355895568920391e+03   6.364621634877534e+01  -1.436389444137779e+00  -3.188896136889757e+00   2.532149889274087e-03
2017-01-01T03:16:20.000  -3.638272232906649e+04   5.324004463757022e+03   6.367151242597357e+01  -1.433471699474152e+00  -3.189324412874824e+00   2.527065872841266e-03
2017-01-01T03:16:30.000  -3.639704246216364e+04   5.292109090005983e+03   6.369675767293199e+01  -1.430555082189575e+00  -3.189749798481264e+00   2.521983797035002e-03
2017-01-01T03:16:40.000  -3.641133343482056e+04   5.260209476638392e+03   6.372195210900410e+01  -1.427639594356229e+00  -3.190172297658244e+00   2.516903665472969e-03
2017-01-01T03:16:50.000  -3.642559525828680e+04   5.228305652623051e+03   6.374709575355284e+01  -1.424725238040872e+00  -3.190591914352273e+00   2.511825481763402e-03
2017-01-01T03:17:00.000  -3.643982794382377e+04   5.196397646908365e+03   6.377218862596186e+01  -1.421812015303301e+00  -3.191008652507250e+00   2.506749249502386e-03
2017-01-01T03:17:10.000  -3.645403150272179e+04   5.164485488384183e+03   6.379723074566530e+01  -1.418899928192880e+00  -3.191422516064957e+00   2.501674972267818e-03
2017-01-01T03:17:20.000  -3.646820594630950e+04   5.132569205864207e+03   6.382222213216441e+01  -1.415988978746860e+00  -3.191833508965438e+00   2.496602653616485e-03
2017-01-01T03:17:30.000  -3.648235128596854e+04   5.100648828048150e+03   6.384716280505378e+01  -1.413079168987059e+00  -3.192241635147276e+00   2.491532297078269e-03
2017-01-01T03:17:40.000  -3.649646753309126e+04   5.068724383618836e+03   6.387205278394634e+01  -1.410170500928687e+00  -3.192646898546423e+00   2.486463906171524e-03
2017-01-01T03:17:50.000  -3.651055469926381e+04   5.036795900821206e+03   6.389689208879647e+01  -1.407262976542150e+00  -3.193049303101237e+00   2.481397484336533e-03
2017-01-01T03:18:00.000  -3.652461279604348e+04   5.004863407972439e+03   6.392168073950738e+01  -1.404356597799404e+00  -3.193448852746291e+00   2.476333035016269e-03
2017-01-01T03:18:10.000  -3.653864183504302e+04   4.972926933269248e+03   6.394641875607957e+01  -1.401451366656453e+00  -3.193845551414717e+00   2.471270561625899e-03
2017-01-01T03:18:20.000  -3.655264182760233e+04   4.940986505534559e+03   6.397110615803230e+01  -1.398547285121302e+00  -3.194239403028910e+00   2.466210067671193e-03
2017-01-01T03:18:30.000  -3.656661278511692e+04   4.909042153470904e+03   6.399574296498228e+01  -1.395644355186035e+00  -3.194630411509826e+00   2.461151556630165e-03
2017-01-01T03:18:40.000  -3.658055471895262e+04   4.877093905853117e+03   6.402032919649373e+01  -1.392742578844377e+00  -3.195018580774545e+00   2.456095031983689e-03
2017-01-01T03:18:50.000  -3.659446764067145e+04   4.845141791018675e+03   6.404486487247652e+01  -1.389841958045262e+00  -3.195403914742771e+00   2.451040497134573e-03
2017-01-01T03:19:00.000  -3.660835156184473e+04   4.813185837288259e+03   6.406935001285629e+01  -1.386942494731203e+00  -3.195786417331391e+00   2.445987955474439e-03
2017-01-01T03:19:10.000  -3.662220649409590e+04   4.781226072868818e+03   6.409378463765054e+01  -1.384044190829473e+00  -3.196166092455726e+00   2.440937410368342e-03
2017-01-01T03:19:20.000  -3.663603244908228e+04   4.749262525890968e+03   6.411816876693618e+01  -1.381147048255619e+00  -3.196542944028861e+00   2.435888865160883e-03
2017-01-01T03:19:30.000  -3.664982943848884e+04   4.717295224427095e+03   6.414250242083824e+01  -1.378251068915033e+00  -3.196916975961598e+00   2.430842323178970e-03
2017-01-01T03:19:40.000  -3.666359747401140e+04   4.685324196529653e+03   6.416678561950096e+01  -1.375356254706447e+00  -3.197288192161971e+00   2.425797787737888e-03
2017-01-01T03:19:50.000  -3.667733656734737e+04   4.653349470248863e+03   6.419101838307084e+01  -1.372462607523632e+00  -3.197656596534880e+00   2.420755262144276e-03
2017-01-01T03:20:00.000  -3.669104673018147e+04   4.621371073670642e+03   6.421520073167170e+01  -1.369570129258749e+00  -3.198022192981845e+00   2.415714749701956e-03
2017-01-01T03:20:10.000  -3.670472797422641e+04   4.589389034819375e+03   6.423933268547637e+01  -1.366678821793613e+00  -3.198384985402009e+00   2.410676253696714e-03
2017-01-01T03:20:20.000  -3.671838031104537e+04   4.557403382079709e+03   6.426341426439369e+01  -1.363788687037695e+00  -3.198744977687636e+00   2.405639777462524e-03
2017-01-01T03:20:30.000  -3.673200375226767e+04   4.525414143685561e+03   6.428744548844858e+01  -1.360899726882089e+00  -3.199102173729615e+00   2.400605324301325e-03
2017-01-01T03:20:40.000  -3.674559830950804e+04   4.493421347910127e+03   6.431142637764019e+01  -1.358011943216672e+00  -3.199456577415364e+00   2.395572897512931e-03
2017-01-01T03:20:50.000  -3.675916399467963e+04   4.461425022330049e+03   6.433535695249357e+01  -1.355125337863682e+00  -3.199808192637001e+00   2.390542500279274e-03
2017-01-01T03:21:00.000  -3.677270081968152e+04   4.429425194559416e+03   6.435923723350854e+01  -1.352239912644020e+00  -3.200157023283150e+00   2.385514135779949e-03
2017-01-01T03:21:10.000  -3.678620879646975e+04   4.397421892083539e+03   6.438306724128527e+01  -1.349355669362232e+00  -3.200503073240833e+00   2.380487807166042e-03
2017-01-01T03:21:20.000  -3.679968793687853e+04   4.365415142672990e+03   6.440684699620866e+01  -1.346472609844043e+00  -3.200846346390597e+00   2.375463517625542e-03
2017-01-01T03:21:30.000  -3.681313825275402e+04   4.333404974076384e+03   6.443057651868425e+01  -1.343590735908480e+00  -3.201186846610212e+00   2.370441270334756e-03
